OBJECT_NAME,OBJECT_ID,EPOCH,MEAN_MOTION,ECCENTRICITY,INCLINATION,RA_OF_ASC_NODE,ARG_OF_PERICENTER,MEAN_ANOMALY,EPHEMERIS_TYPE,CLASSIFICATION_TYPE,NORAD_CAT_ID,ELEMENT_SET_NO,REV_AT_EPOCH,BSTAR,MEAN_MOTION_DOT,MEAN_MOTION_DDOT
GEOSCAN 3 (RS92S3),2025-155T,2026-07-04T09:29:05.591904,15.36002177,.00084188,97.4549,155.4796,114.8584,245.3536,0,U,64893,999,8349,.80757806E-3,.28329E-3,0
INNOSAT 3 (RS92S0),2025-155U,2026-07-04T08:27:52.860960,15.45121201,.00082398,97.4495,157.2747,114.3381,245.8728,0,U,64894,999,8361,.12338334E-2,.58749E-3,0
KNACKSAT-2,1998-067XZ,2026-07-04T10:42:58.364640,15.61522674,.00083105,51.6262,207.5644,289.8930,70.1167,0,U,67683,999,2297,.74362841E-3,.65085E-3,0
