GEOSCAN 3 (RS92S3)      
1 64893U 25155T   26185.39520361  .00028329  00000+0  80758-3 0  9993
2 64893  97.4549 155.4796 0008418 114.8584 245.3536 15.36002177 83493
INNOSAT 3 (RS92S0)      
1 64894U 25155U   26185.35269515  .00058749  00000+0  12338-2 0  9998
2 64894  97.4495 157.2747 0008239 114.3381 245.8728 15.45121201 83613
KNACKSAT-2              
1 67683U 98067XZ  26185.44650885  .00065085  00000+0  74363-3 0  9991
2 67683  51.6262 207.5644 0008310 289.8930  70.1167 15.61522674 22974
